FLOCK 4H-16             
1 66719U 25276BF  26197.18966607  .00003159  00000+0  14919-3 0  9993
2 66719  97.4226 270.3120 0002846 250.9743 109.1184 15.20157047 34829
FLOCK 4H-18             
1 66721U 25276BH  26197.19587328  .00003416  00000+0  16134-3 0  9993
2 66721  97.4169 270.1309 0002186 286.7334  73.3661 15.20099051 34827
FLOCK 4H-19             
1 66722U 25276BJ  26197.19435944  .00002881  00000+0  13195-3 0  9999
2 66722  97.4170 270.5938 0002438 147.2926 212.8461 15.21290548 34148
FLOCK 4H-20             
1 66723U 25276BK  26197.19639943  .00003378  00000+0  15343-3 0  9994
2 66723  97.4206 270.7024 0002948 167.4770 192.6539 15.21452939 34105
FLOCK 4H-21             
1 66724U 25276BL  26197.16224297  .00003171  00000+0  14597-3 0  9995
2 66724  97.4175 270.4917 0002792 166.1521 193.9792 15.21036226 34096
FLOCK 4H-22             
1 66725U 25276BM  26197.20712416  .00003871  00000+0  18014-3 0  9991
2 66725  97.4163 270.2456 0001005 286.6325  73.4800 15.20530682 34834
FLOCK 4H-23             
1 66726U 25276BN  26197.19522427  .00003292  00000+0  15567-3 0  9998
2 66726  97.4233 270.3188 0003077 239.4302 120.6630 15.20077540 34822
FLOCK 4H-24             
1 66727U 25276BP  26197.17993881  .00003223  00000+0  15202-3 0  9993
2 66727  97.4228 270.3328 0002408 261.5456  98.5506 15.20186724 34826
FLOCK 4H-25             
1 66728U 25276BQ  26197.18077355  .00003293  00000+0  15183-3 0  9999
2 66728  97.4185 270.5014 0001886 126.4101 233.7309 15.20952719 34120
FLOCK 4H-26             
1 66729U 25276BR  26197.14771700  .00003799  00000+0  18003-3 0  9996
2 66729  97.4183 270.0821 0003233 260.3745  99.7125 15.19910082 34817
FLOCK 4H-27             
1 66730U 25276BS  26197.14570632  .00003603  00000+0  16670-3 0  9991
2 66730  97.4160 270.3197 0001627 128.3841 231.7541 15.20775841 34834
FLOCK 4H-29             
1 66732U 25276BU  26197.19298786  .00003312  00000+0  15674-3 0  9995
2 66732  97.4161 270.1089 0001654 277.5820  82.5227 15.20050563 34828
FLOCK 4H-30             
1 66733U 25276BV  26197.18480918  .00003142  00000+0  14832-3 0  9991
2 66733  97.4223 270.3094 0002657 260.3353  99.7582 15.20172638 34823
FLOCK 4H-31             
1 66734U 25276BW  26197.20593336  .00003369  00000+0  15985-3 0  9995
2 66734  97.4160 270.0887 0002096 272.0037  88.0958 15.19948304 34824
FLOCK 4H-32             
1 66735U 25276BX  26197.19376105  .00003145  00000+0  14889-3 0  9991
2 66735  97.4215 270.2739 0003067 256.8088 103.2805 15.20068055 34828
FLOCK 4H-33             
1 66736U 25276BY  26197.15119727  .00003381  00000+0  15473-3 0  9995
2 66736  97.4213 270.6266 0002801 160.3845 199.7499 15.21195138 34846
