{"fetched_at":"2026-07-16T17:46:07.288Z","source":"https://celestrak.org/NORAD/elements/gp.php?GROUP=planet&FORMAT=JSON","constellation":"superdove","records":[{"OBJECT_NAME":"FLOCK 4H-16","OBJECT_ID":"2025-276BF","EPOCH":"2026-07-16T04:33:07.148448","CLASSIFICATION_TYPE":"U","MEAN_MOTION":15.20157047,"ECCENTRICITY":0.0002846,"INCLINATION":97.4226,"RA_OF_ASC_NODE":270.312,"ARG_OF_PERICENTER":250.9743,"MEAN_ANOMALY":109.1184,"EPHEMERIS_TYPE":0,"NORAD_CAT_ID":66719,"ELEMENT_SET_NO":999,"REV_AT_EPOCH":3482,"BSTAR":0.00014918849,"MEAN_MOTION_DOT":0.00003159,"MEAN_MOTION_DDOT":0},{"OBJECT_NAME":"FLOCK 4H-18","OBJECT_ID":"2025-276BH","EPOCH":"2026-07-16T04:42:03.451392","CLASSIFICATION_TYPE":"U","MEAN_MOTION":15.20099051,"ECCENTRICITY":0.0002186,"INCLINATION":97.4169,"RA_OF_ASC_NODE":270.1309,"ARG_OF_PERICENTER":286.7334,"MEAN_ANOMALY":73.3661,"EPHEMERIS_TYPE":0,"NORAD_CAT_ID":66721,"ELEMENT_SET_NO":999,"REV_AT_EPOCH":3482,"BSTAR":0.00016133697,"MEAN_MOTION_DOT":0.00003416,"MEAN_MOTION_DDOT":0},{"OBJECT_NAME":"FLOCK 4H-19","OBJECT_ID":"2025-276BJ","EPOCH":"2026-07-16T04:39:52.655616","CLASSIFICATION_TYPE":"U","MEAN_MOTION":15.21290548,"ECCENTRICITY":0.00024384,"INCLINATION":97.417,"RA_OF_ASC_NODE":270.5938,"ARG_OF_PERICENTER":147.2926,"MEAN_ANOMALY":212.8461,"EPHEMERIS_TYPE":0,"NORAD_CAT_ID":66722,"ELEMENT_SET_NO":999,"REV_AT_EPOCH":3414,"BSTAR":0.00013195052,"MEAN_MOTION_DOT":0.00002881,"MEAN_MOTION_DDOT":0},{"OBJECT_NAME":"FLOCK 4H-20","OBJECT_ID":"2025-276BK","EPOCH":"2026-07-16T04:42:48.910752","CLASSIFICATION_TYPE":"U","MEAN_MOTION":15.21452939,"ECCENTRICITY":0.00029483,"INCLINATION":97.4206,"RA_OF_ASC_NODE":270.7024,"ARG_OF_PERICENTER":167.477,"MEAN_ANOMALY":192.6539,"EPHEMERIS_TYPE":0,"NORAD_CAT_ID":66723,"ELEMENT_SET_NO":999,"REV_AT_EPOCH":3410,"BSTAR":0.00015343343,"MEAN_MOTION_DOT":0.00003378,"MEAN_MOTION_DDOT":0},{"OBJECT_NAME":"FLOCK 4H-21","OBJECT_ID":"2025-276BL","EPOCH":"2026-07-16T03:53:37.792608","CLASSIFICATION_TYPE":"U","MEAN_MOTION":15.21036226,"ECCENTRICITY":0.00027924,"INCLINATION":97.4175,"RA_OF_ASC_NODE":270.4917,"ARG_OF_PERICENTER":166.1521,"MEAN_ANOMALY":193.9792,"EPHEMERIS_TYPE":0,"NORAD_CAT_ID":66724,"ELEMENT_SET_NO":999,"REV_AT_EPOCH":3409,"BSTAR":0.00014596929,"MEAN_MOTION_DOT":0.00003171,"MEAN_MOTION_DDOT":0},{"OBJECT_NAME":"FLOCK 4H-22","OBJECT_ID":"2025-276BM","EPOCH":"2026-07-16T04:58:15.527424","CLASSIFICATION_TYPE":"U","MEAN_MOTION":15.20530682,"ECCENTRICITY":0.00010055,"INCLINATION":97.4163,"RA_OF_ASC_NODE":270.2456,"ARG_OF_PERICENTER":286.6325,"MEAN_ANOMALY":73.48,"EPHEMERIS_TYPE":0,"NORAD_CAT_ID":66725,"ELEMENT_SET_NO":999,"REV_AT_EPOCH":3483,"BSTAR":0.00018014087,"MEAN_MOTION_DOT":0.00003871,"MEAN_MOTION_DDOT":0},{"OBJECT_NAME":"FLOCK 4H-23","OBJECT_ID":"2025-276BN","EPOCH":"2026-07-16T04:41:07.376928","CLASSIFICATION_TYPE":"U","MEAN_MOTION":15.2007754,"ECCENTRICITY":0.00030774,"INCLINATION":97.4233,"RA_OF_ASC_NODE":270.3188,"ARG_OF_PERICENTER":239.4302,"MEAN_ANOMALY":120.663,"EPHEMERIS_TYPE":0,"NORAD_CAT_ID":66726,"ELEMENT_SET_NO":999,"REV_AT_EPOCH":3482,"BSTAR":0.00015566719,"MEAN_MOTION_DOT":0.00003292,"MEAN_MOTION_DDOT":0},{"OBJECT_NAME":"FLOCK 4H-24","OBJECT_ID":"2025-276BP","EPOCH":"2026-07-16T04:19:06.713184","CLASSIFICATION_TYPE":"U","MEAN_MOTION":15.20186724,"ECCENTRICITY":0.0002408,"INCLINATION":97.4228,"RA_OF_ASC_NODE":270.3328,"ARG_OF_PERICENTER":261.5456,"MEAN_ANOMALY":98.5506,"EPHEMERIS_TYPE":0,"NORAD_CAT_ID":66727,"ELEMENT_SET_NO":999,"REV_AT_EPOCH":3482,"BSTAR":0.00015202141,"MEAN_MOTION_DOT":0.00003223,"MEAN_MOTION_DDOT":0},{"OBJECT_NAME":"FLOCK 4H-25","OBJECT_ID":"2025-276BQ","EPOCH":"2026-07-16T04:20:18.834720","CLASSIFICATION_TYPE":"U","MEAN_MOTION":15.20952719,"ECCENTRICITY":0.00018861,"INCLINATION":97.4185,"RA_OF_ASC_NODE":270.5014,"ARG_OF_PERICENTER":126.4101,"MEAN_ANOMALY":233.7309,"EPHEMERIS_TYPE":0,"NORAD_CAT_ID":66728,"ELEMENT_SET_NO":999,"REV_AT_EPOCH":3412,"BSTAR":0.00015182532,"MEAN_MOTION_DOT":0.00003293,"MEAN_MOTION_DDOT":0},{"OBJECT_NAME":"FLOCK 4H-26","OBJECT_ID":"2025-276BR","EPOCH":"2026-07-16T03:32:42.748800","CLASSIFICATION_TYPE":"U","MEAN_MOTION":15.19910082,"ECCENTRICITY":0.00032333,"INCLINATION":97.4183,"RA_OF_ASC_NODE":270.0821,"ARG_OF_PERICENTER":260.3745,"MEAN_ANOMALY":99.7125,"EPHEMERIS_TYPE":0,"NORAD_CAT_ID":66729,"ELEMENT_SET_NO":999,"REV_AT_EPOCH":3481,"BSTAR":0.00018002678,"MEAN_MOTION_DOT":0.00003799,"MEAN_MOTION_DDOT":0},{"OBJECT_NAME":"FLOCK 4H-27","OBJECT_ID":"2025-276BS","EPOCH":"2026-07-16T03:29:49.026048","CLASSIFICATION_TYPE":"U","MEAN_MOTION":15.20775841,"ECCENTRICITY":0.00016278,"INCLINATION":97.416,"RA_OF_ASC_NODE":270.3197,"ARG_OF_PERICENTER":128.3841,"MEAN_ANOMALY":231.7541,"EPHEMERIS_TYPE":0,"NORAD_CAT_ID":66730,"ELEMENT_SET_NO":999,"REV_AT_EPOCH":3483,"BSTAR":0.00016669962,"MEAN_MOTION_DOT":0.00003603,"MEAN_MOTION_DDOT":0},{"OBJECT_NAME":"FLOCK 4H-29","OBJECT_ID":"2025-276BU","EPOCH":"2026-07-16T04:37:54.151104","CLASSIFICATION_TYPE":"U","MEAN_MOTION":15.20050563,"ECCENTRICITY":0.00016548,"INCLINATION":97.4161,"RA_OF_ASC_NODE":270.1089,"ARG_OF_PERICENTER":277.582,"MEAN_ANOMALY":82.5227,"EPHEMERIS_TYPE":0,"NORAD_CAT_ID":66732,"ELEMENT_SET_NO":999,"REV_AT_EPOCH":3482,"BSTAR":0.00015673981,"MEAN_MOTION_DOT":0.00003312,"MEAN_MOTION_DDOT":0},{"OBJECT_NAME":"FLOCK 4H-30","OBJECT_ID":"2025-276BV","EPOCH":"2026-07-16T04:26:07.513152","CLASSIFICATION_TYPE":"U","MEAN_MOTION":15.20172638,"ECCENTRICITY":0.00026571,"INCLINATION":97.4223,"RA_OF_ASC_NODE":270.3094,"ARG_OF_PERICENTER":260.3353,"MEAN_ANOMALY":99.7582,"EPHEMERIS_TYPE":0,"NORAD_CAT_ID":66733,"ELEMENT_SET_NO":999,"REV_AT_EPOCH":3482,"BSTAR":0.00014831893,"MEAN_MOTION_DOT":0.00003142,"MEAN_MOTION_DDOT":0},{"OBJECT_NAME":"FLOCK 4H-31","OBJECT_ID":"2025-276BW","EPOCH":"2026-07-16T04:56:32.642304","CLASSIFICATION_TYPE":"U","MEAN_MOTION":15.19948304,"ECCENTRICITY":0.00020963,"INCLINATION":97.416,"RA_OF_ASC_NODE":270.0887,"ARG_OF_PERICENTER":272.0037,"MEAN_ANOMALY":88.0958,"EPHEMERIS_TYPE":0,"NORAD_CAT_ID":66734,"ELEMENT_SET_NO":999,"REV_AT_EPOCH":3482,"BSTAR":0.00015984758,"MEAN_MOTION_DOT":0.00003369,"MEAN_MOTION_DDOT":0},{"OBJECT_NAME":"FLOCK 4H-32","OBJECT_ID":"2025-276BX","EPOCH":"2026-07-16T04:39:00.954720","CLASSIFICATION_TYPE":"U","MEAN_MOTION":15.20068055,"ECCENTRICITY":0.00030679,"INCLINATION":97.4215,"RA_OF_ASC_NODE":270.2739,"ARG_OF_PERICENTER":256.8088,"MEAN_ANOMALY":103.2805,"EPHEMERIS_TYPE":0,"NORAD_CAT_ID":66735,"ELEMENT_SET_NO":999,"REV_AT_EPOCH":3482,"BSTAR":0.0001488896,"MEAN_MOTION_DOT":0.00003145,"MEAN_MOTION_DDOT":0},{"OBJECT_NAME":"FLOCK 4H-33","OBJECT_ID":"2025-276BY","EPOCH":"2026-07-16T03:37:43.444128","CLASSIFICATION_TYPE":"U","MEAN_MOTION":15.21195138,"ECCENTRICITY":0.00028013,"INCLINATION":97.4213,"RA_OF_ASC_NODE":270.6266,"ARG_OF_PERICENTER":160.3845,"MEAN_ANOMALY":199.7499,"EPHEMERIS_TYPE":0,"NORAD_CAT_ID":66736,"ELEMENT_SET_NO":999,"REV_AT_EPOCH":3484,"BSTAR":0.00015473451,"MEAN_MOTION_DOT":0.00003381,"MEAN_MOTION_DDOT":0}]}
